[{"OBJECT_NAME":"STARLINK-31955","OBJECT_ID":"2024-106T","EPOCH":"2026-03-09T02:13:08.024736","MEAN_MOTION":15.27582623,"ECCENTRICITY":0.00015786,"INCLINATION":43.0036,"RA_OF_ASC_NODE":335.711,"ARG_OF_PERICENTER":261.2872,"MEAN_ANOMALY":98.7801,"EPHEMERIS_TYPE":0,"CLASSIFICATION_TYPE":"U","NORAD_CAT_ID":59939,"ELEMENT_SET_NO":999,"REV_AT_EPOCH":10047,"BSTAR":-3.5367692e-5,"MEAN_MOTION_DOT":-1.235e-5,"MEAN_MOTION_DDOT":0},{"OBJECT_NAME":"GEOSCAN 1 (RS92S1)","OBJECT_ID":"2025-155E","EPOCH":"2026-03-09T22:44:05.846496","MEAN_MOTION":15.28410635,"ECCENTRICITY":0.00087099,"INCLINATION":97.4463,"RA_OF_ASC_NODE":37.403,"ARG_OF_PERICENTER":153.6429,"MEAN_ANOMALY":206.5255,"EPHEMERIS_TYPE":0,"CLASSIFICATION_TYPE":"U","NORAD_CAT_ID":64880,"ELEMENT_SET_NO":999,"REV_AT_EPOCH":6560,"BSTAR":0.00054367431,"MEAN_MOTION_DOT":0.00014993,"MEAN_MOTION_DDOT":0}]
